NORAD_CAT_ID,OBJECT_NAME,OBJECT_TYPE,EPOCH,MEAN_MOTION,ECCENTRICITY,INCLINATION,RA_OF_ASC_NODE,ARG_OF_PERICENTER,MEAN_ANOMALY,BSTAR,MEAN_MOTION_DOT,MEAN_MOTION_DDOT,TLE_LINE0,TLE_LINE1,TLE_LINE2,SEMIMAJOR_AXIS,PERIOD,APOGEE,PERIGEE,DECAYED
51728.0,STARLINK-3448,PAYLOAD,2023-09-17 10:20:37,15.08836277,8.32e-05,53.2171,58.4958,48.6368,311.4695,0.00023869,3.513e-05,0.0,0 STARLINK-3448,1 51728U 22016Q   23260.43098805  .00003513  00000-0  23869-3 0  9997,2 51728  53.2171  58.4958 0000832  48.6368 311.4695 15.08836277 87057,6917.892,95.438,540.332,539.181,0.0
51728.0,STARLINK-3448,PAYLOAD,2023-09-17 18:17:32,15.08860148,0.0001242,53.2169,57.0088,70.884,289.2287,0.0010756,0.00016881,0.0,0 STARLINK-3448,1 51728U 22016Q   23260.76218551  .00016881  00000-0  10756-2 0  9997,2 51728  53.2169  57.0088 0001242  70.8840 289.2287 15.08860148 88235,6917.819,95.436,540.543,538.825,0.0
51728.0,STARLINK-3448,PAYLOAD,2023-09-18 03:49:51,15.08837967,4.43e-05,53.217,55.2246,114.642,245.4619,9.3199e-05,1.196e-05,0.0,0 STARLINK-3448,1 51728U 22016Q   23261.15962485  .00001196  00000-0  93199-4 0  9990,2 51728  53.2170  55.2246 0000443 114.6420 245.4619 15.08837967 88298,6917.887,95.438,540.058,539.445,0.0
51728.0,STARLINK-3448,PAYLOAD,2023-09-18 16:32:57,15.08842553,0.0001263,53.2173,52.8451,88.6325,271.4812,0.0014724,0.00023225,0.0,0 STARLINK-3448,1 51728U 22016Q   23261.68955092  .00023225  00000-0  14724-2 0  9996,2 51728  53.2173  52.8451 0001263  88.6325 271.4812 15.08842553 87242,6917.873,95.437,540.611,538.864,0.0
51728.0,STARLINK-3448,PAYLOAD,2023-09-18 21:19:06,15.08853339,0.0001296,53.2174,51.9529,86.248,273.866,0.0017278,0.00027327,0.0,0 STARLINK-3448,1 51728U 22016Q   23261.88826961  .00027327  00000-0  17278-2 0  9994,2 51728  53.2174  51.9529 0001296  86.2480 273.8660 15.08853339 88401,6917.84,95.437,540.601,538.808,0.0
51728.0,STARLINK-3448,PAYLOAD,2023-09-19 10:02:11,15.0885521,0.0001393,53.2171,49.5744,97.6962,262.4189,0.0011964,0.00018812,0.0,0 STARLINK-3448,1 51728U 22016Q   23262.41818934  .00018812  00000-0  11964-2 0  9990,2 51728  53.2171  49.5744 0001393  97.6962 262.4189 15.08855210 88487,6917.834,95.437,540.663,538.735,0.0
51728.0,STARLINK-3448,PAYLOAD,2023-09-20 13:03:45,15.08832804,0.0001149,53.2185,44.5191,111.1553,248.9562,0.00019329,2.789e-05,0.0,0 STARLINK-3448,1 51728U 22016Q   23263.54427232  .00002789  00000-0  19329-3 0  9992,2 51728  53.2185  44.5191 0001149 111.1553 248.9562 15.08832804 88657,6917.902,95.438,540.562,538.973,0.0
51728.0,STARLINK-3448,PAYLOAD,2023-09-20 14:39:08,15.0882548,0.0001251,53.2185,44.2223,115.1514,244.9608,0.0011463,0.00017995,0.0,0 STARLINK-3448,1 51728U 22016Q   23263.61051501  .00017995  00000-0  11463-2 0  9997,2 51728  53.2185  44.2223 0001251 115.1514 244.9608 15.08825480 87530,6917.925,95.438,540.655,538.924,0.0
51728.0,STARLINK-3448,PAYLOAD,2023-09-20 19:25:18,15.08823943,0.0001224,53.2184,43.331,104.3107,255.8021,0.0010814,0.00016957,0.0,0 STARLINK-3448,1 51728U 22016Q   23263.80923824  .00016957  00000-0  10814-2 0  9990,2 51728  53.2184  43.3310 0001224 104.3107 255.8021 15.08823943 87569,6917.929,95.439,540.641,538.948,0.0
51728.0,STARLINK-3448,PAYLOAD,2023-09-21 12:54:32,15.08852505,0.0001194,53.2185,40.0599,105.6373,254.4751,0.0011338,0.00017809,0.0,0 STARLINK-3448,1 51728U 22016Q   23264.53787753  .00017809  00000-0  11338-2 0  9999,2 51728  53.2185  40.0599 0001194 105.6373 254.4751 15.08852505 87671,6917.842,95.437,540.533,538.881,0.0
51728.0,STARLINK-3448,PAYLOAD,2023-09-21 16:05:18,15.08860519,0.0001185,53.2185,39.466,102.9602,257.1522,0.0012611,0.00019851,0.0,0 STARLINK-3448,1 51728U 22016Q   23264.67035554  .00019851  00000-0  12611-2 0  9993,2 51728  53.2185  39.4660 0001185 102.9602 257.1522 15.08860519 88825,6917.818,95.436,540.502,538.863,0.0
51728.0,STARLINK-3448,PAYLOAD,2023-09-21 20:51:27,15.08871764,0.0001152,53.2183,38.5734,101.421,258.6911,0.0013534,0.00021336,0.0,0 STARLINK-3448,1 51728U 22016Q   23264.86907135  .00021336  00000-0  13534-2 0  9993,2 51728  53.2183  38.5734 0001152 101.4210 258.6911 15.08871764 87728,6917.783,95.436,540.445,538.851,0.0
51728.0,STARLINK-3448,PAYLOAD,2023-09-22 01:37:37,15.08848732,0.0002306,53.2187,37.6793,95.5283,264.5972,0.00056068,8.649e-05,0.0,0 STARLINK-3448,1 51728U 22016Q   23265.06779697  .00008649  00000-0  56068-3 0  9998,2 51728  53.2187  37.6793 0002306  95.5283 264.5972 15.08848732 88882,6917.854,95.437,541.314,538.123,0.0
51728.0,STARLINK-3448,PAYLOAD,2023-09-22 12:45:19,15.08851837,0.000139,53.2184,35.599,104.7453,255.3693,0.00031108,4.668e-05,0.0,0 STARLINK-3448,1 51728U 22016Q   23265.53147123  .00004668  00000-0  31108-3 0  9998,2 51728  53.2184  35.5990 0001390 104.7453 255.3693 15.08851837 87820,6917.844,95.437,540.671,538.748,0.0
51728.0,STARLINK-3448,PAYLOAD,2023-09-22 19:06:51,15.08864313,0.0001197,53.2186,34.4111,91.5502,268.5627,0.00094859,0.00014851,0.0,0 STARLINK-3448,1 51728U 22016Q   23265.79642871  .00014851  00000-0  94859-3 0  9993,2 51728  53.2186  34.4111 0001197  91.5502 268.5627 15.08864313 87868,6917.806,95.436,540.499,538.843,0.0
51728.0,STARLINK-3448,PAYLOAD,2023-09-23 01:28:24,15.08851598,0.0001197,53.2181,33.2206,103.5976,256.515,0.00060884,9.418e-05,0.0,0 STARLINK-3448,1 51728U 22016Q   23266.06139119  .00009418  00000-0  60884-3 0  9994,2 51728  53.2181  33.2206 0001197 103.5976 256.5150 15.08851598 89034,6917.845,95.437,540.538,538.882,0.0
51728.0,STARLINK-3448,PAYLOAD,2023-09-23 12:36:06,15.08848677,0.0001324,53.2177,31.1396,91.5612,268.5531,0.0011081,0.00017396,0.0,0 STARLINK-3448,1 51728U 22016Q   23266.52507163  .00017396  00000-0  11081-2 0  9991,2 51728  53.2177  31.1396 0001324  91.5612 268.5531 15.08848677 89109,6917.854,95.437,540.635,538.803,0.0
51728.0,STARLINK-3448,PAYLOAD,2023-09-24 09:16:06,15.08848101,0.0001234,53.218,27.2751,92.3395,267.7738,0.00094482,0.00014784,0.0,0 STARLINK-3448,1 51728U 22016Q   23267.38619192  .00014784  00000-0  94482-3 0  9997,2 51728  53.2180  27.2751 0001234  92.3395 267.7738 15.08848101 89237,6917.856,95.437,540.574,538.867,0.0
51728.0,STARLINK-3448,PAYLOAD,2023-09-24 14:02:16,15.0885054,0.0001257,53.2173,26.3819,88.5744,271.5392,0.00057337,8.852e-05,0.0,0 STARLINK-3448,1 51728U 22016Q   23267.58491049  .00008852  00000-0  57337-3 0  9995,2 51728  53.2173  26.3819 0001257  88.5744 271.5392 15.08850540 88131,6917.848,95.437,540.583,538.844,0.0
51728.0,STARLINK-3448,PAYLOAD,2023-09-24 15:37:39,15.08854123,0.0001267,53.2173,26.0847,80.5444,279.5691,0.00073438,0.00011423,0.0,0 STARLINK-3448,1 51728U 22016Q   23267.65115023  .00011423  00000-0  73438-3 0  9996,2 51728  53.2173  26.0847 0001267  80.5444 279.5691 15.08854123 88141,6917.837,95.437,540.579,538.826,0.0
51728.0,STARLINK-3448,PAYLOAD,2023-09-25 07:31:30,15.08858778,0.000124,53.2182,23.1114,96.7131,263.4002,0.0015704,0.00024806,0.0,0 STARLINK-3448,1 51728U 22016Q   23268.31355261  .00024806  00000-0  15704-2 0  9990,2 51728  53.2182  23.1114 0001240  96.7131 263.4002 15.08858778 89373,6917.823,95.436,540.546,538.83,0.0
51728.0,STARLINK-3448,PAYLOAD,2023-09-25 13:53:03,15.08856651,0.0001292,53.2184,21.9218,95.2751,264.8389,0.0017195,0.00027196,0.0,0 STARLINK-3448,1 51728U 22016Q   23268.57851367  .00027196  00000-0  17195-2 0  9997,2 51728  53.2184  21.9218 0001292  95.2751 264.8389 15.08856651 88285,6917.829,95.437,540.588,538.801,0.0
51728.0,STARLINK-3448,PAYLOAD,2023-09-25 15:28:26,15.08860545,0.0001245,53.2179,21.6236,93.6233,266.4901,0.001749,0.00027673,0.0,0 STARLINK-3448,1 51728U 22016Q   23268.64475254  .00027673  00000-0  17490-2 0  9990,2 51728  53.2179  21.6236 0001245  93.6233 266.4901 15.08860545 89423,6917.818,95.436,540.544,538.821,0.0
51728.0,STARLINK-3448,PAYLOAD,2023-09-25 20:14:35,15.08869778,0.0001204,53.217,20.7298,93.7337,266.3793,0.0015451,0.00024408,0.0,0 STARLINK-3448,1 51728U 22016Q   23268.84346845  .00024408  00000-0  15451-2 0  9993,2 51728  53.2170  20.7298 0001204  93.7337 266.3793 15.08869778 88326,6917.789,95.436,540.487,538.821,0.0
51728.0,STARLINK-3448,PAYLOAD,2023-09-26 12:08:28,15.08829099,0.0001246,53.2179,17.7589,45.9104,314.1991,0.0012469,0.00019606,0.0,0 STARLINK-3448,1 51728U 22016Q   23269.50588187  .00019606  00000-0  12469-2 0  9994,2 51728  53.2179  17.7589 0001246  45.9104 314.1991 15.08829099 89551,6917.914,95.438,540.641,538.917,0.0
51728.0,STARLINK-3448,PAYLOAD,2023-09-26 13:43:51,15.08838785,0.0001913,53.2191,17.4624,66.0842,294.035,0.0010477,0.00016425,0.0,0 STARLINK-3448,1 51728U 22016Q   23269.57212375  .00016425  00000-0  10477-2 0  9997,2 51728  53.2191  17.4624 0001913  66.0842 294.0350 15.08838785 88439,6917.884,95.438,541.072,538.426,0.0
51728.0,STARLINK-3448,PAYLOAD,2023-09-26 16:54:37,15.08848036,0.0001881,53.2181,16.8662,76.5404,283.5797,0.0010313,0.00016167,0.0,0 STARLINK-3448,1 51728U 22016Q   23269.70460212  .00016167  00000-0  10313-2 0  9999,2 51728  53.2181  16.8662 0001881  76.5404 283.5797 15.08848036 88457,6917.856,95.437,541.022,538.42,0.0
51728.0,STARLINK-3448,PAYLOAD,2023-09-27 07:13:05,15.08834882,0.0001264,53.2168,14.1867,105.4327,254.6805,0.00086013,0.00013426,0.0,0 STARLINK-3448,1 51728U 22016Q   23270.30076042  .00013426  00000-0  86013-3 0  9997,2 51728  53.2168  14.1867 0001264 105.4327 254.6805 15.08834882 89679,6917.896,95.438,540.635,538.887,0.0
51728.0,STARLINK-3448,PAYLOAD,2023-09-27 11:59:15,15.08843639,0.0001541,53.2173,13.2951,92.787,267.3299,0.0012821,0.00020178,0.0,0 STARLINK-3448,1 51728U 22016Q   23270.49948160  .00020178  00000-0  12821-2 0  9993,2 51728  53.2173  13.2951 0001541  92.7870 267.3299 15.08843639 88574,6917.869,95.437,540.8,538.668,0.0
51728.0,STARLINK-3448,PAYLOAD,2023-09-27 13:34:38,15.08847012,0.0001378,53.2174,12.998,81.243,278.8718,0.0014581,0.00022998,0.0,0 STARLINK-3448,1 51728U 22016Q   23270.56572194  .00022998  00000-0  14581-2 0  9998,2 51728  53.2174  12.9980 0001378  81.2430 278.8718 15.08847012 89715,6917.859,95.437,540.677,538.771,0.0
